COMMENT,ORIGINATOR,NORAD_CAT_ID,OBJECT_NAME,OBJECT_TYPE,CLASSIFICATION_TYPE,INTLDES,EPOCH,EPOCH_MICROSECONDS,MEAN_MOTION,ECCENTRICITY,INCLINATION,RA_OF_ASC_NODE,ARG_OF_PERICENTER,MEAN_ANOMALY,EPHEMERIS_TYPE,ELEMENT_SET_NO,REV_AT_EPOCH,BSTAR,MEAN_MOTION_DOT,MEAN_MOTION_DDOT,FILE,TLE_LINE0,TLE_LINE1,TLE_LINE2,OBJECT_ID,OBJECT_NUMBER,SEMIMAJOR_AXIS,PERIOD,APOGEE,PERIGEE,DECAYED,date
GENERATED VIA SPACETRACK.ORG API,18 SPCS,48890,SPACEBEE-104,PAYLOAD,U,21059M,2023/4/10 14:15,308416,15.27715122,0.000773,97.5849,236.0981,157.6988,202.4589,0,999,9906,0.0015912,0.00043254,0,3885195,0 SPACEBEE-104,1 48890U 21059M   23100.59412394  .00043254  00000-0  15912-2 0  9997,2 48890  97.5849 236.0981 0007730 157.6988 202.4589 15.27715122 99060,2021-059M,48890,6860.782,94.258,487.95,477.343,0,
GENERATED VIA SPACETRACK.ORG API,18 SPCS,48890,SPACEBEE-104,PAYLOAD,U,21059M,2023/4/10 20:32,675552,15.27736565,0.0007703,97.5848,236.3647,156.891,203.2677,0,999,9910,0.0015134,0.0004115,0,3885326,0 SPACEBEE-104,1 48890U 21059M   23100.85611893  .00041150  00000-0  15134-2 0  9990,2 48890  97.5848 236.3647 0007703 156.8910 203.2677 15.27736565 99103,2021-059M,48890,6860.717,94.257,487.867,477.298,0,
GENERATED VIA SPACETRACK.ORG API,18 SPCS,48890,SPACEBEE-104,PAYLOAD,U,21059M,2023/4/10 20:32,675552,15.27736565,0.0007703,97.5848,236.3647,156.891,203.2677,0,999,9910,0.0015134,0.0004115,0,3885363,0 SPACEBEE-104,1 48890U 21059M   23100.85611893  .00041150  00000-0  15134-2 0  9990,2 48890  97.5848 236.3647 0007703 156.8910 203.2677 15.27736565 99103,2021-059M,48890,6860.717,94.257,487.867,477.298,0,
GENERATED VIA SPACETRACK.ORG API,18 SPCS,48890,SPACEBEE-104,PAYLOAD,U,21059M,2023/4/11 7:33,628352,15.27768259,0.0007722,97.5851,236.8315,155.2909,204.8701,0,999,9917,0.0012821,0.00034854,0,3885783,0 SPACEBEE-104,1 48890U 21059M   23101.31460218  .00034854  00000-0  12821-2 0  9998,2 48890  97.5851 236.8315 0007722 155.2909 204.8701 15.27768259 99173,2021-059M,48890,6860.622,94.255,487.785,477.19,0,
GENERATED VIA SPACETRACK.ORG API,18 SPCS,48890,SPACEBEE-104,PAYLOAD,U,21059M,2023/4/11 20:07,414304,15.27810299,0.0007722,97.5852,237.3646,153.2811,206.8827,0,999,9925,0.0012907,0.00035134,0,3885919,0 SPACEBEE-104,1 48890U 21059M   23101.83856961  .00035134  00000-0  12907-2 0  9996,2 48890  97.5852 237.3646 0007722 153.2811 206.8827 15.27810299 99259,2021-059M,48890,6860.497,94.253,487.659,477.064,0,
GENERATED VIA SPACETRACK.ORG API,18 SPCS,48890,SPACEBEE-104,PAYLOAD,U,21059M,2023/4/12 8:42,8800,15.2784962,0.0007698,97.5851,237.8978,151.661,208.5049,0,999,9933,0.001275,0.00034746,0,3886349,0 SPACEBEE-104,1 48890U 21059M   23102.36252325  .00034746  00000-0  12750-2 0  9993,2 48890  97.5851 237.8978 0007698 151.6610 208.5049 15.27849620 99336,2021-059M,48890,6860.379,94.25,487.525,476.963,0,
GENERATED VIA SPACETRACK.ORG API,18 SPCS,48890,SPACEBEE-104,PAYLOAD,U,21059M,2023/4/13 8:16,362592,15.27925368,0.0007618,97.5849,238.8976,148.8105,211.3588,0,999,9948,0.0013757,0.00037596,0,3886564,0 SPACEBEE-104,1 48890U 21059M   23103.34490003  .00037596  00000-0  13757-2 0  9993,2 48890  97.5849 238.8976 0007618 148.8105 211.3588 15.27925368 99481,2021-059M,48890,6860.152,94.245,487.243,476.791,0,
GENERATED VIA SPACETRACK.ORG API,18 SPCS,48890,SPACEBEE-104,PAYLOAD,U,21059M,2023/4/14 7:51,451680,15.28006962,0.0007578,97.585,239.8976,145.3853,214.7881,0,999,9963,0.0015452,0.00042369,0,3887333,0 SPACEBEE-104,1 48890U 21059M   23104.32722745  .00042369  00000-0  15452-2 0  9991,2 48890  97.5850 239.8976 0007578 145.3853 214.7881 15.28006962 99632,2021-059M,48890,6859.908,94.24,486.971,476.574,0,
GENERATED VIA SPACETRACK.ORG API,18 SPCS,48890,SPACEBEE-104,PAYLOAD,U,21059M,2023/4/14 15:42,437376,15.28035581,0.0007576,97.5852,240.2309,144.2468,215.928,0,999,9968,0.0015804,0.00043379,0,3887351,0 SPACEBEE-104,1 48890U 21059M   23104.65465784  .00043379  00000-0  15804-2 0  9997,2 48890  97.5852 240.2309 0007576 144.2468 215.9280 15.28035581 99688,2021-059M,48890,6859.822,94.239,486.884,476.49,0,
GENERATED VIA SPACETRACK.ORG API,18 SPCS,48890,SPACEBEE-104,PAYLOAD,U,21059M,2023/4/15 8:59,328160,15.28106725,0.0007547,97.5851,240.9643,141.5087,218.6692,0,999,9979,0.0016955,0.00046665,0,3887974,0 SPACEBEE-104,1 48890U 21059M   23105.37498065  .00046665  00000-0  16955-2 0  9994,2 48890  97.5851 240.9643 0007547 141.5087 218.6692 15.28106725 99798,2021-059M,48890,6859.609,94.234,486.651,476.297,0,
GENERATED VIA SPACETRACK.ORG API,18 SPCS,48890,SPACEBEE-104,PAYLOAD,U,21059M,2023/4/15 21:34,44192,15.28156994,0.0007535,97.5852,241.4976,139.747,220.4328,0,999,9987,0.0016902,0.0004659,0,3888122,0 SPACEBEE-104,1 48890U 21059M   23105.89883153  .00046590  00000-0  16902-2 0  9996,2 48890  97.5852 241.4976 0007535 139.7470 220.4328 15.28156994 99875,2021-059M,48890,6859.459,94.231,486.493,476.155,0,
GENERATED VIA SPACETRACK.ORG API,18 SPCS,48890,SPACEBEE-104,PAYLOAD,U,21059M,2023/4/15 21:34,44192,15.28156994,0.0007535,97.5852,241.4976,139.747,220.4328,0,999,9987,0.0016902,0.0004659,0,3888171,0 SPACEBEE-104,1 48890U 21059M   23105.89883153  .00046590  00000-0  16902-2 0  9996,2 48890  97.5852 241.4976 0007535 139.7470 220.4328 15.28156994 99875,2021-059M,48890,6859.459,94.231,486.493,476.155,0,
GENERATED VIA SPACETRACK.ORG API,18 SPCS,48890,SPACEBEE-104,PAYLOAD,U,21059M,2023/4/16 8:34,919648,15.28200928,0.0007478,97.5852,241.9644,138.3263,221.8547,0,999,9994,0.0016873,0.00046571,0,3888626,0 SPACEBEE-104,1 48890U 21059M   23106.35718657  .00046571  00000-0  16873-2 0  9990,2 48890  97.5852 241.9644 0007478 138.3263 221.8547 15.28200928 99946,2021-059M,48890,6859.327,94.228,486.322,476.063,0,
GENERATED VIA SPACETRACK.ORG API,18 SPCS,48890,SPACEBEE-104,PAYLOAD,U,21059M,2023/4/16 21:08,800032,15.28251003,0.0007436,97.5853,242.4977,136.5364,223.6462,0,999,10002,0.00162,0.00044768,0,3888799,0 SPACEBEE-104,1 48890U 21059M   23106.88100463  .00044768  00000-0  16200-2 0  9998,2 48890  97.5853 242.4977 0007436 136.5364 223.6462 15.28251003100026,2021-059M,48890,6859.178,94.225,486.143,475.942,0,
GENERATED VIA SPACETRACK.ORG API,18 SPCS,48890,SPACEBEE-104,PAYLOAD,U,21059M,2023/4/16 22:42,935072,15.28256726,0.0007406,97.5852,242.5642,136.4947,223.6877,0,999,10003,0.0016235,0.00044873,0,3888953,0 SPACEBEE-104,1 48890U 21059M   23106.94648073  .00044873  00000-0  16235-2 0  9994,2 48890  97.5852 242.5642 0007406 136.4947 223.6877 15.28256726100036,2021-059M,48890,6859.16,94.225,486.105,475.946,0,
GENERATED VIA SPACETRACK.ORG API,18 SPCS,48890,SPACEBEE-104,PAYLOAD,U,21059M,2023/4/17 8:08,265792,15.28295149,0.0007337,97.5854,242.9642,135.231,224.9522,0,999,10009,0.0017205,0.00047631,0,3889215,0 SPACEBEE-104,1 48890U 21059M   23107.33933178  .00047631  00000-0  17205-2 0  9994,2 48890  97.5854 242.9642 0007337 135.2310 224.9522 15.28295149100095,2021-059M,48890,6859.046,94.223,485.943,475.878,0,
GENERATED VIA SPACETRACK.ORG API,18 SPCS,48890,SPACEBEE-104,PAYLOAD,U,21059M,2023/4/17 20:42,459136,15.2834596,0.0007234,97.5852,243.4974,133.2509,226.9335,0,999,10017,0.0017875,0.00049577,0,3889391,0 SPACEBEE-104,1 48890U 21059M   23107.86311874  .00049577  00000-0  17875-2 0  9999,2 48890  97.5852 243.4974 0007234 133.2509 226.9335 15.28345960100171,2021-059M,48890,6858.893,94.22,485.72,475.797,0,
GENERATED VIA SPACETRACK.ORG API,18 SPCS,48890,SPACEBEE-104,PAYLOAD,U,21059M,2023/4/18 7:42,584320,15.28383218,0.0007282,97.5855,243.9637,132.185,228.0008,0,999,10024,0.0015721,0.00043609,0,3889684,0 SPACEBEE-104,1 48890U 21059M   23108.32141880  .00043609  00000-0  15721-2 0  9997,2 48890  97.5855 243.9637 0007282 132.1850 228.0008 15.28383218100241,2021-059M,48890,6858.782,94.217,485.642,475.652,0,
GENERATED VIA SPACETRACK.ORG API,18 SPCS,48890,SPACEBEE-104,PAYLOAD,U,21059M,2023/4/19 13:34,25920,15.28497381,0.0007266,97.5863,245.2308,127.1104,233.08,0,999,10043,0.0015666,0.00043608,0,3890383,0 SPACEBEE-104,1 48890U 21059M   23109.56531280  .00043608  00000-0  15666-2 0  9998,2 48890  97.5863 245.2308 0007266 127.1104 233.0800 15.28497381100432,2021-059M,48890,6858.441,94.21,485.289,475.322,0,
GENERATED VIA SPACETRACK.ORG API,18 SPCS,48890,SPACEBEE-104,PAYLOAD,U,21059M,2023/4/20 8:25,112352,15.28567597,0.0007192,97.5866,246.0311,124.7127,235.479,0,999,10055,0.0014306,0.0003988,0,3890827,0 SPACEBEE-104,1 48890U 21059M   23110.35088093  .00039880  00000-0  14306-2 0  9993,2 48890  97.5866 246.0311 0007192 124.7127 235.4790 15.28567597100558,2021-059M,48890,6858.23,94.206,485.028,475.163,0,
GENERATED VIA SPACETRACK.ORG API,18 SPCS,48890,SPACEBEE-104,PAYLOAD,U,21059M,2023/4/20 14:42,856448,15.28587392,0.0007168,97.5867,246.2979,123.8312,236.361,0,999,10059,0.001362,0.00037977,0,3891109,0 SPACEBEE-104,1 48890U 21059M   23110.61272982  .00037977  00000-0  13620-2 0  9997,2 48890  97.5867 246.2979 0007168 123.8312 236.3610 15.28587392100590,2021-059M,48890,6858.171,94.205,484.952,475.12,0,
GENERATED VIA SPACETRACK.ORG API,18 SPCS,48890,SPACEBEE-104,PAYLOAD,U,21059M,2023/4/21 6:24,966912,15.28635148,0.0007067,97.5869,246.9648,121.6649,238.528,0,999,10069,0.0012759,0.00035612,0,3891529,0 SPACEBEE-104,1 48890U 21059M   23111.26733758  .00035612  00000-0  12759-2 0  9998,2 48890  97.5869 246.9648 0007067 121.6649 238.5280 15.28635148100690,2021-059M,48890,6858.028,94.202,484.74,475.047,0,
GENERATED VIA SPACETRACK.ORG API,18 SPCS,48890,SPACEBEE-104,PAYLOAD,U,21059M,2023/4/21 14:16,363776,15.28659735,0.0007039,97.5871,247.2983,120.4387,239.7549,0,999,10074,0.001318,0.00036823,0,3891716,0 SPACEBEE-104,1 48890U 21059M   23111.59463384  .00036823  00000-0  13180-2 0  9993,2 48890  97.5871 247.2983 0007039 120.4387 239.7549 15.28659735100749,2021-059M,48890,6857.955,94.2,484.647,474.993,0,
